OBJECT_NAME,OBJECT_ID,EPOCH,MEAN_MOTION,ECCENTRICITY,INCLINATION,RA_OF_ASC_NODE,ARG_OF_PERICENTER,MEAN_ANOMALY,EPHEMERIS_TYPE,CLASSIFICATION_TYPE,NORAD_CAT_ID,ELEMENT_SET_NO,REV_AT_EPOCH,BSTAR,MEAN_MOTION_DOT,MEAN_MOTION_DDOT
STARLINK-31834,2024-088P,2026-05-31T03:27:04.929984,15.30397512,.0001485,53.1608,117.1034,106.9256,253.1907,0,U,59721,999,11648,.92805E-3,.27397E-3,0
STARLINK-31843,2024-088Q,2026-05-31T02:00:21.904704,15.31692082,.0001194,53.1595,117.4362,106.6418,253.4714,0,U,59722,999,11629,-.37389E-3,-.11946E-3,0
STARLINK-31766,2024-088R,2026-05-31T04:46:12.078624,15.30194565,.000112,53.1595,116.7374,90.5499,269.5630,0,U,59723,999,11631,.34637E-4,.667E-5,0
STARLINK-31836,2024-088S,2026-05-31T02:27:11.551392,15.31698934,.0001364,53.1599,116.8486,86.0534,274.0623,0,U,59724,999,11630,-.13448E-5,-.407E-5,0
STARLINK-31820,2024-088T,2026-05-31T04:14:35.571840,15.31704971,.0001327,53.1598,116.5992,87.6566,272.4587,0,U,59725,999,11631,.56082E-4,.1376E-4,0
STARLINK-31642,2024-088U,2026-05-31T04:21:18.949248,15.31701446,.0001571,53.1603,116.6280,81.0356,279.0823,0,U,59726,999,11631,.3447E-4,.704E-5,0
STARLINK-31827,2024-088V,2026-05-31T03:20:57.852672,15.31698953,.0001111,53.1599,117.0750,91.9337,268.1791,0,U,59727,999,11642,.16288E-4,.14E-5,0
SHIYAN-23 (SY-23),2024-089A,2026-05-30T16:54:54.101376,14.87009694,.0001952,97.7765,152.8457,241.6639,118.4380,0,U,59728,999,11124,.96839E-4,.814E-5,0
STARLINK-31472,2024-090A,2026-05-30T23:12:49.169664,15.27571431,.0001013,43.0029,78.8148,274.3877,85.6859,0,U,59730,999,11602,.4364E-4,.939E-5,0
STARLINK-31817,2024-090B,2026-05-30T22:46:55.111008,15.27576579,.000059,42.9994,78.6837,275.5630,84.5154,0,U,59731,999,11602,.27024E-4,.482E-5,0
STARLINK-31833,2024-090D,2026-05-31T04:15:38.579040,15.27580296,.0001079,43.0019,77.8113,247.8877,112.1860,0,U,59733,999,11605,.11644E-3,.2943E-4,0
STARLINK-31849,2024-090E,2026-05-31T04:00:22.608576,15.27589797,.0001606,43.0044,70.8158,262.5457,97.5212,0,U,59734,999,11613,-.34945E-4,-.1224E-4,0
STARLINK-31661,2024-090F,2026-05-30T23:01:16.335840,15.27578350,.000138,42.9993,71.8364,283.7439,76.3259,0,U,59735,999,11610,.10103E-3,.2519E-4,0
STARLINK-31707,2024-090G,2026-05-30T23:07:15.840192,15.27567715,.0001893,43.0004,78.7835,253.0197,107.0448,0,U,59736,999,11602,.99339E-4,.2471E-4,0
STARLINK-31821,2024-090H,2026-05-31T04:06:26.189280,15.27485278,.0000888,43.0016,77.7686,200.1550,159.9267,0,U,59737,999,11605,.84861E-3,.23096E-3,0
STARLINK-31819,2024-090J,2026-05-30T23:16:31.164960,15.27575144,.0000879,43.0012,78.8341,246.1404,113.9355,0,U,59738,999,11602,.39395E-4,.822E-5,0
STARLINK-31726,2024-090K,2026-05-31T03:23:51.381888,15.27568042,.000078,43.0001,77.5459,281.5212,78.5553,0,U,59739,999,11605,.22237E-4,.35E-5,0
STARLINK-31759,2024-090L,2026-05-30T20:41:30.874560,15.27579855,.00012835,43.0062,79.7467,262.6081,97.4625,0,U,59740,999,11600,.47352303E-4,.1041E-4,0
STARLINK-31818,2024-090M,2026-05-31T04:21:11.499840,15.27579746,.0000943,43.0016,77.8425,278.4353,81.6392,0,U,59741,999,11605,.8978E-4,.2209E-4,0
STARLINK-31816,2024-090N,2026-05-31T03:07:22.814688,15.27575782,.000136,43.0039,78.2938,264.9697,95.0999,0,U,59742,999,11602,.67943E-4,.1608E-4,0
STARLINK-31809,2024-090P,2026-05-31T03:49:18.353280,15.27558912,.000092,43.0018,70.7560,265.2119,94.8627,0,U,59743,999,11613,-.73358E-4,-.2279E-4,0
STARLINK-31779,2024-090Q,2026-05-30T22:52:28.100064,15.27575792,.0000988,43.0005,78.7097,271.5388,88.5350,0,U,59744,999,11602,.28035E-4,.509E-5,0
STARLINK-31805,2024-090R,2026-05-31T03:18:17.133120,15.27579344,.0001007,42.9998,77.5147,285.5782,74.4959,0,U,59745,999,11605,.81038E-4,.1969E-4,0
STARLINK-31681,2024-090S,2026-05-31T02:20:40.864416,15.27572494,.000078,43.0043,71.1555,300.7983,59.2792,0,U,59746,999,11612,-.10587E-4,-.553E-5,0
STARLINK-31636,2024-090T,2026-05-30T22:56:10.619808,15.27573395,.0000486,42.9997,78.7254,84.5472,275.5435,0,U,59747,999,11602,-.59831E-4,-.1907E-4,0
STARLINK-31640,2024-090U,2026-05-30T04:30:20.193408,15.27581620,.00010575,43.0019,83.2839,263.0747,96.9984,0,U,59748,999,11590,.25123112E-4,.429E-5,0
STARLINK-31677,2024-090V,2026-05-31T02:52:35.276736,15.27578069,.0001295,43.0046,78.2376,264.2520,95.8184,0,U,59749,999,11603,.71139E-5,-.66E-6,0
STARLINK-31783,2024-090W,2026-05-30T23:55:22.751040,15.27575905,.0001156,43.0032,79.0332,257.8387,102.2336,0,U,59750,999,11601,.56836E-4,.1302E-4,0
STARLINK-31808,2024-090X,2026-05-31T04:46:52.557024,15.27594674,.0001459,43.0029,77.1139,257.9345,102.1343,0,U,59751,999,11605,.11295E-3,.2849E-4,0
STARLINK-31822,2024-090Y,2026-05-31T03:44:08.647296,15.27602428,.0000929,43.0012,77.6467,256.1287,103.9461,0,U,59752,999,11604,.13336E-3,.3412E-4,0
