STARLINK-31834          
1 59721U 24088P   26151.14380706  .00027397  00000+0  92805-3 0  9994
2 59721  53.1608 117.1034 0001485 106.9256 253.1907 15.30397512116486
STARLINK-31843          
1 59722U 24088Q   26151.08358686 -.00011946  00000+0 -37389-3 0  9991
2 59722  53.1595 117.4362 0001194 106.6418 253.4714 15.31692082116292
STARLINK-31766          
1 59723U 24088R   26151.19875091  .00000667  00000+0  34637-4 0  9998
2 59723  53.1595 116.7374 0001120  90.5499 269.5630 15.30194565116317
STARLINK-31836          
1 59724U 24088S   26151.10221703 -.00000407  00000+0 -13448-5 0  9997
2 59724  53.1599 116.8486 0001364  86.0534 274.0623 15.31698934116309
STARLINK-31820          
1 59725U 24088T   26151.17680060  .00001376  00000+0  56082-4 0  9994
2 59725  53.1598 116.5992 0001327  87.6566 272.4587 15.31704971116310
STARLINK-31642          
1 59726U 24088U   26151.18146932  .00000704  00000+0  34470-4 0  9992
2 59726  53.1603 116.6280 0001571  81.0356 279.0823 15.31701446116315
STARLINK-31827          
1 59727U 24088V   26151.13955848  .00000140  00000+0  16288-4 0  9993
2 59727  53.1599 117.0750 0001111  91.9337 268.1791 15.31698953116429
SHIYAN-23 (SY-23)       
1 59728U 24089A   26150.70479284  .00000814  00000+0  96839-4 0  9990
2 59728  97.7765 152.8457 0001952 241.6639 118.4380 14.87009694111246
STARLINK-31472          
1 59730U 24090A   26150.96723576  .00000939  00000+0  43640-4 0  9999
2 59730  43.0029  78.8148 0001013 274.3877  85.6859 15.27571431116020
STARLINK-31817          
1 59731U 24090B   26150.94924897  .00000482  00000+0  27024-4 0  9998
2 59731  42.9994  78.6837 0000590 275.5630  84.5154 15.27576579116026
STARLINK-31833          
1 59733U 24090D   26151.17752985  .00002943  00000+0  11644-3 0  9997
2 59733  43.0019  77.8113 0001079 247.8877 112.1860 15.27580296116050
STARLINK-31849          
1 59734U 24090E   26151.16692834 -.00001224  00000+0 -34945-4 0  9996
2 59734  43.0044  70.8158 0001606 262.5457  97.5212 15.27589797116136
STARLINK-31661          
1 59735U 24090F   26150.95921685  .00002519  00000+0  10103-3 0  9997
2 59735  42.9993  71.8364 0001380 283.7439  76.3259 15.27578350116108
STARLINK-31707          
1 59736U 24090G   26150.96337778  .00002471  00000+0  99339-4 0  9999
2 59736  43.0004  78.7835 0001893 253.0197 107.0448 15.27567715116029
STARLINK-31821          
1 59737U 24090H   26151.17113645  .00023096  00000+0  84861-3 0  9998
2 59737  43.0016  77.7686 0000888 200.1550 159.9267 15.27485278116056
STARLINK-31819          
1 59738U 24090J   26150.96980515  .00000822  00000+0  39395-4 0  9998
2 59738  43.0012  78.8341 0000879 246.1404 113.9355 15.27575144116028
STARLINK-31726          
1 59739U 24090K   26151.14156692  .00000350  00000+0  22237-4 0  9994
2 59739  43.0001  77.5459 0000780 281.5212  78.5553 15.27568042116052
STARLINK-31759          
1 59740U 24090L   26150.86216290  .00001041  00000+0  47352-4 0  9998
2 59740  43.0062  79.7467 0001283 262.6081  97.4625 15.27579855116006
STARLINK-31818          
1 59741U 24090M   26151.18138310  .00002209  00000+0  89780-4 0  9999
2 59741  43.0016  77.8425 0000943 278.4353  81.6392 15.27579746116058
STARLINK-31816          
1 59742U 24090N   26151.13012517  .00001608  00000+0  67943-4 0  9994
2 59742  43.0039  78.2938 0001360 264.9697  95.0999 15.27575782116028
STARLINK-31809          
1 59743U 24090P   26151.15924020 -.00002279  00000+0 -73358-4 0  9992
2 59743  43.0018  70.7560 0000920 265.2119  94.8627 15.27558912116131
STARLINK-31779          
1 59744U 24090Q   26150.95310301  .00000509  00000+0  28035-4 0  9995
2 59744  43.0005  78.7097 0000988 271.5388  88.5350 15.27575792116029
STARLINK-31805          
1 59745U 24090R   26151.13769830  .00001969  00000+0  81038-4 0  9995
2 59745  42.9998  77.5147 0001007 285.5782  74.4959 15.27579344116057
STARLINK-31681          
1 59746U 24090S   26151.09769519 -.00000553  00000+0 -10587-4 0  9996
2 59746  43.0043  71.1555 0000780 300.7983  59.2792 15.27572494116127
STARLINK-31636          
1 59747U 24090T   26150.95567847 -.00001907  00000+0 -59831-4 0  9990
2 59747  42.9997  78.7254 0000486  84.5472 275.5435 15.27573395116023
STARLINK-31640          
1 59748U 24090U   26150.18773372  .00000429  00000+0  25123-4 0  9991
2 59748  43.0019  83.2839 0001057 263.0747  96.9984 15.27581620115905
STARLINK-31677          
1 59749U 24090V   26151.11985274 -.00000066  00000+0  71139-5 0  9999
2 59749  43.0046  78.2376 0001295 264.2520  95.8184 15.27578069116030
STARLINK-31783          
1 59750U 24090W   26150.99679110  .00001302  00000+0  56836-4 0  9994
2 59750  43.0032  79.0332 0001156 257.8387 102.2336 15.27575905116019
STARLINK-31808          
1 59751U 24090X   26151.19921941  .00002849  00000+0  11295-3 0  9996
2 59751  43.0029  77.1139 0001459 257.9345 102.1343 15.27594674116056
STARLINK-31822          
1 59752U 24090Y   26151.15565564  .00003412  00000+0  13336-3 0  9993
2 59752  43.0012  77.6467 0000929 256.1287 103.9461 15.27602428116041
